JUPITER 3 (ECHOSTAR 24) 
1 57479U 23108A   26195.45242454 -.00000157  00000+0  00000+0 0  9991
2 57479   0.0108  40.5711 0001108  70.6612 248.7625  1.00272339 10915
GALAXY 37 (G-37)        
1 57493U 23112A   26194.96357502  .00000042  00000+0  00000+0 0  9990
2 57493   0.0218  73.5270 0001739  44.1230  34.0616  1.00271325 10810
LUDI TANCE-4 01A        
1 57624U 23120A   26196.74041109 -.00000187  00000+0  00000+0 0  9997
2 57624  15.0861 193.2602 0001570  15.2314  81.1515  1.00275631 10837
TJS-10                  
1 58204U 23169A   26196.78922244 -.00000261  00000+0  00000+0 0  9990
2 58204   2.6161  80.1472 0004080 115.1904 114.7974  1.00273627  9822
ZHONGXING-6E            
1 58253U 23172A   26195.70499280 -.00000370  00000+0  00000+0 0  9999
2 58253   0.0192  86.2131 0002698  23.7417 191.9164  1.00272476  9938
YAOGAN-41               
1 58582U 23197A   26196.93760780 -.00000370  00000+0  00000+0 0  9993
2 58582   3.0772 313.5996 0014280 198.4989 242.3050  1.00265300  9617
OVZON-3                 
1 58698U 24003A   26195.87143991  .00000043  00000+0  00000+0 0  9995
2 58698   0.0136 108.2863 0000368 217.1758 340.6622  1.00270475  7729
INSAT-3DS               
1 58990U 24033A   26196.92972110 -.00000166  00000+0  00000+0 0  9990
2 58990   0.0891 264.6156 0001086 224.1397 221.7800  1.00270850 47356
MERAH PUTIH 2           
1 58995U 24035A   26195.34489189 -.00000365  00000+0  00000+0 0  9992
2 58995   0.0215  82.0854 0001062  34.4456  52.7926  1.00270544  8864
TJS-11                  
1 59020U 24037A   26196.86446804 -.00000370  00000+0  00000+0 0  9995
2 59020   4.1622 327.4419 0001839 150.1534 239.8832  1.00273387  8872
HULIANWAN GAOGUI-01 (H*)
1 59069U 24040A   26196.56370677  .00000146  00000+0  00000+0 0  9993
2 59069   0.0734 333.3745 0001725  62.7563 133.8265  1.00274292  7616
EUTELSAT 36D            
1 59346U 24059A   26196.92062105  .00000145  00000+0  00000+0 0  9994
2 59346   0.0038 131.9941 0000480  63.3891 105.6708  1.00271634  8436
PAKSAT-MM1              
1 59915U 24104A   26194.56857404  .00000150  00000+0  00000+0 0  9995
2 59915   0.0311 143.3666 0001963 313.2921  77.6097  1.00269751  7795
ASTRA 1P (SES-24)       
1 60086U 24115A   26194.35091053  .00000118  00000+0  00000+0 0  9999
2 60086   0.0666 329.5187 0001497 236.9138 230.3347  1.00281209  7460
GOES 19                 
1 60133U 24119A   26196.96834516 -.00000259  00000+0  00000+0 0  9991
2 60133   0.0131  94.6279 0000410 114.0287 358.5568  1.00271291  7252
ZHONGXING-3A            
1 60179U 24122A   26196.79104245 -.00000324  00000+0  00000+0 0  9998
2 60179   0.0284 118.0048 0001717  49.1090 152.8803  1.00270068  7592
TURKSAT 6A              
1 60233U 24127A   26196.92183439  .00000000  00000+0  00000+0 0  9991
2 60233   0.0179 201.2512 0002959 327.3133 139.0327  1.00269949  7308
HULIANWAN GAOGUI-02 (H*)
1 60327U 24135A   26196.87226808 -.00000184  00000+0  00000+0 0  9990
2 60327   0.0468 357.8774 0006174  11.3688  31.5080  1.00272319  7788
ZHONGXING-4A            
1 60606U 24151A   26196.52995333 -.00000372  00000+0  00000+0 0  9995
2 60606   1.2426 270.4906 0000406 296.2264  35.6107  1.00267142  7039
HULIANWAN GAOGUI-03 (H*)
1 61503U 24181A   26196.82692263 -.00000251  00000+0  00000+0 0  9990
2 61503   0.0510 359.2926 0001047  93.7712  61.1711  1.00270412  7113
DSN-3 (KIRAMEKI-3)      
1 61733U 24198A   26196.87070807 -.00000260  00000+0  00000+0 0  9992
2 61733   0.0187  58.2121 0000878  80.6115 252.4037  1.00271764  6200
KOREASAT 6A             
1 61910U 24206A   26196.86516138 -.00000372  00000+0  00000+0 0  9994
2 61910   0.0153  98.9389 0000739 355.1342 267.0932  1.00269777  6123
OPTUS-X (ADS-01)        
1 62006U 24212A   26196.20183799 -.00000153  00000+0  00000+0 0  9996
2 62006   0.0135  63.8448 0002386  90.1044   8.1442  1.00270006  6040
GSAT-N2 (GSAT-20)       
1 62028U 24214A   26196.92694774 -.00000029  00000+0  00000+0 0  9993
2 62028   0.0723 262.0580 0002641 144.3909 288.9454  1.00271220  6188
SXM-9                   
1 62259U 24234A   26196.89662153 -.00000215  00000+0  00000+0 0  9990
2 62259   0.0168 344.3844 0004912 333.4324 213.5265  1.00269404  5868
TJS-12                  
1 62374U 24246A   26196.72861419 -.00000241  00000+0  00000+0 0  9998
2 62374   0.6104 302.1742 0001797  97.4123 302.8032  1.00268848  5857
NUVIEW ALPHA            
1 62455U 24252B   26196.25545237 -.00000225  00000+0  00000+0 0  9992
2 62455   0.0436  27.4031 0000983  54.2618 220.2947  1.00270943  4107
AGILA                   
1 62456U 24252C   26196.60739123 -.00000192  00000+0  00000+0 0  9994
2 62456   0.0493 128.1618 0001181 351.5480 184.5583  1.00270462  5444
NUVIEW BRAVO            
1 62457U 24252D   26196.25545237 -.00000224  00000+0  00000+0 0  9993
2 62457   0.0698 162.7343 0001502 343.8112 155.4099  1.00270612  4078
THURAYA-4               
1 62483U 25001A   26196.92226772  .00000129  00000+0  00000+0 0  9992
2 62483   0.0218  72.9287 0000165 216.8252  20.3302  1.00272822  4467
SHIJIAN-25 (SJ-25)      
1 62485U 25002A   26196.79329299 -.00000364  00000+0  00000+0 0  9990
2 62485   5.1794  60.9819 0052117 175.4963 109.8555  1.00263213  5643
