OBJECT_NAME,OBJECT_ID,EPOCH,MEAN_MOTION,ECCENTRICITY,INCLINATION,RA_OF_ASC_NODE,ARG_OF_PERICENTER,MEAN_ANOMALY,EPHEMERIS_TYPE,CLASSIFICATION_TYPE,NORAD_CAT_ID,ELEMENT_SET_NO,REV_AT_EPOCH,BSTAR,MEAN_MOTION_DOT,MEAN_MOTION_DDOT
JUPITER 3 (ECHOSTAR 24),2023-108A,2026-07-14T10:51:29.480256,1.00272339,.00011081,0.0108,40.5711,70.6612,248.7625,0,U,57479,999,1091,0,-.157E-5,0
GALAXY 37 (G-37),2023-112A,2026-07-13T23:07:32.881728,1.00271325,.00017395,0.0218,73.5270,44.1230,34.0616,0,U,57493,999,1081,0,.42E-6,0
LUDI TANCE-4 01A,2023-120A,2026-07-15T17:46:11.518176,1.00275631,.00015701,15.0861,193.2602,15.2314,81.1515,0,U,57624,999,1083,0,-.187E-5,0
TJS-10,2023-169A,2026-07-15T18:56:28.818816,1.00273627,.000408,2.6161,80.1472,115.1904,114.7974,0,U,58204,999,982,0,-.261E-5,0
ZHONGXING-6E,2023-172A,2026-07-14T16:55:11.377920,1.00272476,.0002698,0.0192,86.2131,23.7417,191.9164,0,U,58253,999,993,0,-.37E-5,0
YAOGAN-41,2023-197A,2026-07-15T22:30:09.313920,1.00265300,.00142808,3.0772,313.5996,198.4989,242.3050,0,U,58582,999,961,0,-.37E-5,0
OVZON-3,2024-003A,2026-07-14T20:54:52.408224,1.00270475,.00003681,0.0136,108.2863,217.1758,340.6622,0,U,58698,999,772,0,.43E-6,0
INSAT-3DS,2024-033A,2026-07-15T22:18:47.903040,1.00270850,.00010865,0.0891,264.6156,224.1397,221.7800,0,U,58990,999,4735,0,-.166E-5,0
MERAH PUTIH 2,2024-035A,2026-07-14T08:16:38.659296,1.00270544,.00010623,0.0215,82.0854,34.4456,52.7926,0,U,58995,999,886,0,-.365E-5,0
TJS-11,2024-037A,2026-07-15T20:44:50.038656,1.00273387,.0001839,4.1622,327.4419,150.1534,239.8832,0,U,59020,999,887,0,-.37E-5,0
HULIANWAN GAOGUI-01 (HG-01),2024-040A,2026-07-15T13:31:44.264928,1.00274292,.0001725,0.0734,333.3745,62.7563,133.8265,0,U,59069,999,761,0,.146E-5,0
EUTELSAT 36D,2024-059A,2026-07-15T22:05:41.658720,1.00271634,.00004802,0.0038,131.9941,63.3891,105.6708,0,U,59346,999,843,0,.145E-5,0
PAKSAT-MM1,2024-104A,2026-07-13T13:38:44.797056,1.00269751,.0001963,0.0311,143.3666,313.2921,77.6097,0,U,59915,999,779,0,.15E-5,0
ASTRA 1P (SES-24),2024-115A,2026-07-13T08:25:18.669792,1.00281209,.00014971,0.0666,329.5187,236.9138,230.3347,0,U,60086,999,746,0,.118E-5,0
GOES 19,2024-119A,2026-07-15T23:14:25.021824,1.00271291,.000041,0.0131,94.6279,114.0287,358.5568,0,U,60133,999,725,0,-.259E-5,0
ZHONGXING-3A,2024-122A,2026-07-15T18:59:06.067680,1.00270068,.0001717,0.0284,118.0048,49.1090,152.8803,0,U,60179,999,759,0,-.324E-5,0
TURKSAT 6A,2024-127A,2026-07-15T22:07:26.491296,1.00269949,.0002959,0.0179,201.2512,327.3133,139.0327,0,U,60233,999,730,0,0,0
HULIANWAN GAOGUI-02 (HG-02),2024-135A,2026-07-15T20:56:03.962112,1.00272319,.00061743,0.0468,357.8774,11.3688,31.5080,0,U,60327,999,778,0,-.184E-5,0
ZHONGXING-4A,2024-151A,2026-07-15T12:43:07.967712,1.00267142,.0000406,1.2426,270.4906,296.2264,35.6107,0,U,60606,999,703,0,-.372E-5,0
HULIANWAN GAOGUI-03 (HG-03),2024-181A,2026-07-15T19:50:46.115232,1.00270412,.00010471,0.0510,359.2926,93.7712,61.1711,0,U,61503,999,711,0,-.251E-5,0
DSN-3 (KIRAMEKI-3),2024-198A,2026-07-15T20:53:49.177248,1.00271764,.00008788,0.0187,58.2121,80.6115,252.4037,0,U,61733,999,620,0,-.26E-5,0
KOREASAT 6A,2024-206A,2026-07-15T20:45:49.943232,1.00269777,.00007392,0.0153,98.9389,355.1342,267.0932,0,U,61910,999,612,0,-.372E-5,0
OPTUS-X (ADS-01),2024-212A,2026-07-15T04:50:38.802336,1.00270006,.00023861,0.0135,63.8448,90.1044,8.1442,0,U,62006,999,604,0,-.153E-5,0
GSAT-N2 (GSAT-20),2024-214A,2026-07-15T22:14:48.284736,1.00271220,.00026413,0.0723,262.0580,144.3909,288.9454,0,U,62028,999,618,0,-.29E-6,0
SXM-9,2024-234A,2026-07-15T21:31:08.100192,1.00269404,.00049128,0.0168,344.3844,333.4324,213.5265,0,U,62259,999,586,0,-.215E-5,0
TJS-12,2024-246A,2026-07-15T17:29:12.266016,1.00268848,.00017977,0.6104,302.1742,97.4123,302.8032,0,U,62374,999,585,0,-.241E-5,0
NUVIEW ALPHA,2024-252B,2026-07-15T06:07:51.084768,1.00270943,.0000983,0.0436,27.4031,54.2618,220.2947,0,U,62455,999,410,0,-.225E-5,0
AGILA,2024-252C,2026-07-15T14:34:38.602272,1.00270462,.0001181,0.0493,128.1618,351.5480,184.5583,0,U,62456,999,544,0,-.192E-5,0
NUVIEW BRAVO,2024-252D,2026-07-15T06:07:51.084768,1.00270612,.00015028,0.0698,162.7343,343.8112,155.4099,0,U,62457,999,407,0,-.224E-5,0
THURAYA-4,2025-001A,2026-07-15T22:08:03.931008,1.00272822,.00001659,0.0218,72.9287,216.8252,20.3302,0,U,62483,999,446,0,.129E-5,0
SHIJIAN-25 (SJ-25),2025-002A,2026-07-15T19:02:20.514336,1.00263213,.0052117,5.1794,60.9819,175.4963,109.8555,0,U,62485,999,564,0,-.364E-5,0
